ONEWEB-0427             
1 50499U 21132AG  25030.59309601 -.00000014  00000+0 -67539-4 0  9999
2 50499  87.9060  75.4150 0001921  90.0590 270.0762 13.18684810156676
ONEWEB-0429             
1 50500U 21132AH  25030.58045548  .00000005  00000+0 -19784-4 0  9996
2 50500  87.9067  75.4378 0001935 103.1670 256.9678 13.18685352156635
ONEWEB-0430             
1 50501U 21132AJ  25030.56938627  .00000063  00000+0  12816-3 0  9995
2 50501  87.9063  75.4370 0002267  99.4807 260.6581 13.18685347156675
ONEWEB-0432             
1 50502U 21132AK  25030.52512977 -.00000002  00000+0 -37025-4 0  9993
2 50502  87.9059  75.4354 0002556  76.3878 283.7538 13.18684936156633
ONEWEB-0440             
1 50503U 21132AL  25030.58835618  .00000017  00000+0  96921-5 0  9995
2 50503  87.9064  75.4189 0001613 108.8023 251.3284 13.18686377156621
ONEWEB-0450             
1 50504U 21132AM  25030.35453757  .00000032  00000+0  47682-4 0  9997
2 50504  87.9067  75.4943 0002147 106.4938 253.6430 13.18684851156628
ONEWEB-0410             
1 51622U 22012A   25030.59577026  .00000036  00000+0  58982-4 0  9998
2 51622  87.9079 105.9793 0001424  52.9265 307.1996 13.17648711147514
ONEWEB-0411             
1 51623U 22012B   25030.73340854  .00000660  00000+0  18545-2 0  9994
2 51623  87.8922 136.3850 0002366 104.3733 255.7658 13.10375336144761
